OBJECT_NAME,OBJECT_ID,EPOCH,MEAN_MOTION,ECCENTRICITY,INCLINATION,RA_OF_ASC_NODE,ARG_OF_PERICENTER,MEAN_ANOMALY,EPHEMERIS_TYPE,CLASSIFICATION_TYPE,NORAD_CAT_ID,ELEMENT_SET_NO,REV_AT_EPOCH,BSTAR,MEAN_MOTION_DOT,MEAN_MOTION_DDOT
TIANLIAN 1-05,2021-063A,2026-06-09T21:58:22.349280,1.00271035,.00007847,1.5741,80.7632,319.0898,204.8462,0,U,49011,999,1800,0,.125E-5,0
STAR ONE D2,2021-069A,2026-06-08T07:55:02.533152,1.00333647,.0005608,0.0128,334.6169,102.1905,228.6130,0,U,49055,999,1785,0,0,0
EUTELSAT QUANTUM,2021-069B,2026-06-09T15:16:24.604896,1.00272619,.0002263,0.0115,358.7621,75.5744,100.4800,0,U,49056,999,1785,0,.143E-5,0
ZHONGXING-2E,2021-071A,2026-06-09T20:12:21.575232,1.00273093,.00017272,0.0420,241.0797,242.6523,175.6362,0,U,49062,999,1796,0,-.274E-5,0
TJS-7,2021-077A,2026-06-09T21:25:10.288416,1.00270798,.00023443,0.4888,86.1705,335.6857,58.2372,0,U,49115,999,948,0,-.107E-5,0
CHINASAT 9B,2021-080A,2026-06-09T22:22:30.124704,1.00272302,.00015016,0.0365,98.4840,7.0922,229.7778,0,U,49125,999,1757,0,-.295E-5,0
SHIJIAN-21 (SJ-21),2021-094A,2026-06-09T19:16:28.984800,1.00274694,.0049663,5.0946,61.2217,168.0823,86.0057,0,U,49330,999,528,0,-.332E-5,0
SES-17,2021-095A,2026-06-08T13:03:49.565088,1.00269944,.00010243,0.0256,35.0415,45.9352,304.8147,0,U,49332,999,1776,0,-.256E-5,0
SYRACUSE 4A,2021-095B,2026-06-09T06:42:36.531072,1.00270522,.00014053,0.0174,339.6684,95.7554,328.3909,0,U,49333,999,1786,0,.152E-5,0
QZS-1R (MICHIBIKI-1R),2021-096A,2026-06-09T15:38:55.454208,1.00258277,.07543477,37.4460,79.6965,271.6353,275.8796,0,U,49336,999,1693,0,-.235E-5,0
ZHONGXING-1D,2021-114A,2026-06-09T22:30:36.847872,1.00273150,.00003129,0.0357,241.6448,321.4280,163.0855,0,U,49505,999,1674,0,-.319E-5,0
STPSAT-6,2021-118A,2026-06-08T09:25:46.362144,1.00273463,.00014023,0.2970,85.5058,256.1428,304.8941,0,U,49817,999,1648,0,-.3E-6,0
EXPRESS AMU-7,2021-123A,2026-06-08T14:09:38.541888,1.00272437,.0000591,0.0147,283.9589,64.1783,266.2549,0,U,50001,999,1645,0,-.226E-5,0
EXPRESS AMU-3,2021-123B,2026-06-08T23:58:33.585312,1.00272769,.00006904,0.0188,303.9292,44.6996,11.3801,0,U,50002,999,695,0,-.305E-5,0
TIANLIAN 2-02,2021-124A,2026-06-09T20:59:15.046080,1.00271899,.0001146,0.7814,86.2452,213.1778,84.6142,0,U,50005,999,1654,0,.3E-7,0
TURKSAT 5B,2021-126A,2026-06-08T23:50:55.140000,1.00271431,.00036094,0.0683,338.5411,18.8248,299.7491,0,U,50212,999,1621,0,.162E-5,0
INMARSAT 6-F1,2021-128A,2026-06-08T17:12:08.906400,1.00272678,.00001242,0.0152,289.1871,257.7540,51.9615,0,U,50319,999,1617,0,-.156E-5,0
SHIYAN-12 01 (SY-12 01),2021-129A,2026-06-09T17:04:33.809088,1.00038159,.0003362,3.6541,80.0100,287.0810,213.4950,0,U,50321,999,1642,0,.55E-6,0
SHIYAN-12 02 (SY-12 02),2021-129B,2026-06-09T17:09:18.352800,1.00491268,.0002707,3.6538,80.0162,56.8276,101.5903,0,U,50322,999,1642,0,-.195E-5,0
TJS-9,2021-135A,2026-06-09T22:32:36.656160,1.00271185,.00046584,0.0541,254.3491,155.1415,324.1829,0,U,50574,999,1635,0,-.281E-5,0
USA 324,2022-006A,2026-06-06T02:06:38.886912,1.00289779,.000284,0.7690,83.2777,165.6787,110.1567,0,U,51280,999,1602,0,-.58E-6,0
GOES 18,2022-021A,2026-06-09T17:49:07.040640,1.00271121,.0000484,0.0450,135.5773,6.1617,246.6508,0,U,51850,999,651,0,.114E-5,0
ZHONGXING-6D,2022-038A,2026-06-08T22:30:31.110912,1.00268958,.00001694,0.0449,94.6952,275.0152,350.3002,0,U,52255,999,1533,0,-.337E-5,0
NILESAT 301,2022-061A,2026-06-08T15:03:36.194400,1.00271880,.00054073,0.0573,29.1411,14.7863,71.9873,0,U,52817,999,1465,0,-.42E-6,0
CMS-02 (GSAT-24),2022-067A,2026-06-09T20:34:32.415168,1.00270542,.00016781,0.0408,134.6819,235.8128,279.3700,0,U,52903,999,1453,0,-.147E-5,0
MEASAT 3D,2022-067B,2026-06-09T20:12:21.575232,1.00270039,.00006899,0.0419,309.4258,109.8397,233.5319,0,U,52904,999,1457,0,-.224E-5,0
SES-22,2022-071A,2026-06-09T17:48:37.089216,1.00274141,.00010962,0.0216,291.5284,140.4160,314.3506,0,U,52933,999,744,0,.121E-5,0
WFOV (USA 332),2022-073A,2026-06-09T19:02:12.856704,1.00270832,.00021497,3.6909,78.6209,241.5697,342.7881,0,U,52940,999,1429,0,-.346E-5,0
TIANLIAN 2-03,2022-078A,2026-06-09T08:15:15.905376,1.00272082,.00015785,0.6523,76.8788,320.3026,354.9439,0,U,53100,999,1446,0,.89E-6,0
SBIRS GEO-6 (USA 336),2022-092A,2026-06-09T19:07:49.819296,1.00271209,.00019092,3.2711,317.3561,118.9134,247.8702,0,U,53355,999,1416,0,-.277E-5,0
EUTELSAT KONNECT VHTS,2022-110A,2026-06-09T15:03:40.826304,1.00269352,.00026035,0.0647,103.4177,320.1706,63.0435,0,U,53765,999,676,0,.34E-6,0
