TIANLIAN 1-05           
1 49011U 21063A   26160.91553645  .00000125  00000+0  00000+0 0  9996
2 49011   1.5741  80.7632 0000784 319.0898 204.8462  1.00271035 18002
STAR ONE D2             
1 49055U 21069A   26159.32989043  .00000000  00000+0  00000+0 0  9990
2 49055   0.0128 334.6169 0005608 102.1905 228.6130  1.00333647 17855
EUTELSAT QUANTUM        
1 49056U 21069B   26160.63639589  .00000143  00000+0  00000+0 0  9992
2 49056   0.0115 358.7621 0002263  75.5744 100.4800  1.00272619 17852
ZHONGXING-2E            
1 49062U 21071A   26160.84191638 -.00000274  00000+0  00000+0 0  9999
2 49062   0.0420 241.0797 0001727 242.6523 175.6362  1.00273093 17968
TJS-7                   
1 49115U 21077A   26160.89248019 -.00000107  00000+0  00000+0 0  9990
2 49115   0.4888  86.1705 0002344 335.6857  58.2372  1.00270798  9489
CHINASAT 9B             
1 49125U 21080A   26160.93229311 -.00000295  00000+0  00000+0 0  9992
2 49125   0.0365  98.4840 0001501   7.0922 229.7778  1.00272302 17576
SHIJIAN-21 (SJ-21)      
1 49330U 21094A   26160.80311325 -.00000332  00000+0  00000+0 0  9990
2 49330   5.0946  61.2217 0049663 168.0823  86.0057  1.00274694  5284
SES-17                  
1 49332U 21095A   26159.54432367 -.00000256  00000+0  00000+0 0  9997
2 49332   0.0256  35.0415 0001024  45.9352 304.8147  1.00269944 17762
SYRACUSE 4A             
1 49333U 21095B   26160.27958948  .00000152  00000+0  00000+0 0  9992
2 49333   0.0174 339.6684 0001405  95.7554 328.3909  1.00270522 17865
QZS-1R (MICHIBIKI-1R)   
1 49336U 21096A   26160.65203072 -.00000235  00000+0  00000+0 0  9992
2 49336  37.4460  79.6965 0754347 271.6353 275.8796  1.00258277 16935
ZHONGXING-1D            
1 49505U 21114A   26160.93792648 -.00000319  00000+0  00000+0 0  9997
2 49505   0.0357 241.6448 0000312 321.4280 163.0855  1.00273150 16740
STPSAT-6                
1 49817U 21118A   26159.39289771 -.00000030  00000+0  00000+0 0  9993
2 49817   0.2970  85.5058 0001402 256.1428 304.8941  1.00273463 16489
EXPRESS AMU-7           
1 50001U 21123A   26159.59002942 -.00000226  00000+0  00000+0 0  9998
2 50001   0.0147 283.9589 0000591  64.1783 266.2549  1.00272437 16454
EXPRESS AMU-3           
1 50002U 21123B   26159.99899983 -.00000305  00000+0  00000+0 0  9990
2 50002   0.0188 303.9292 0000690  44.6996  11.3801  1.00272769  6955
TIANLIAN 2-02           
1 50005U 21124A   26160.87447970  .00000003  00000+0  00000+0 0  9992
2 50005   0.7814  86.2452 0001146 213.1778  84.6142  1.00271899 16548
TURKSAT 5B              
1 50212U 21126A   26159.99369375  .00000162  00000+0  00000+0 0  9993
2 50212   0.0683 338.5411 0003609  18.8248 299.7491  1.00271431 16213
INMARSAT 6-F1           
1 50319U 21128A   26159.71676975 -.00000156  00000+0  00000+0 0  9994
2 50319   0.0152 289.1871 0000124 257.7540  51.9615  1.00272678 16176
SHIYAN-12 01 (SY-12 01) 
1 50321U 21129A   26160.71150242  .00000055  00000+0  00000+0 0  9991
2 50321   3.6541  80.0100 0003362 287.0810 213.4950  1.00038159 16425
SHIYAN-12 02 (SY-12 02) 
1 50322U 21129B   26160.71479575 -.00000195  00000+0  00000+0 0  9991
2 50322   3.6538  80.0162 0002707  56.8276 101.5903  1.00491268 16429
TJS-9                   
1 50574U 21135A   26160.93931315 -.00000281  00000+0  00000+0 0  9992
2 50574   0.0541 254.3491 0004658 155.1415 324.1829  1.00271185 16355
USA 324                 
1 51280U 22006A   26157.08795008 -.00000058  00000+0  00000+0 0  9996
2 51280   0.7690  83.2777 0002840 165.6787 110.1567  1.00289779 16021
GOES 18                 
1 51850U 22021A   26160.74244260  .00000114  00000+0  00000+0 0  9994
2 51850   0.0450 135.5773 0000484   6.1617 246.6508  1.00271121  6516
ZHONGXING-6D            
1 52255U 22038A   26159.93786008 -.00000337  00000+0  00000+0 0  9990
2 52255   0.0449  94.6952 0000169 275.0152 350.3002  1.00268958 15335
NILESAT 301             
1 52817U 22061A   26159.62750225 -.00000042  00000+0  00000+0 0  9991
2 52817   0.0573  29.1411 0005407  14.7863  71.9873  1.00271880 14651
CMS-02 (GSAT-24)        
1 52903U 22067A   26160.85731962 -.00000147  00000+0  00000+0 0  9993
2 52903   0.0408 134.6819 0001678 235.8128 279.3700  1.00270542 14538
MEASAT 3D               
1 52904U 22067B   26160.84191638 -.00000224  00000+0  00000+0 0  9999
2 52904   0.0419 309.4258 0000689 109.8397 233.5319  1.00270039 14572
SES-22                  
1 52933U 22071A   26160.74209594  .00000121  00000+0  00000+0 0  9991
2 52933   0.0216 291.5284 0001096 140.4160 314.3506  1.00274141  7443
WFOV (USA 332)          
1 52940U 22073A   26160.79320436 -.00000346  00000+0  00000+0 0  9995
2 52940   3.6909  78.6209 0002149 241.5697 342.7881  1.00270832 14293
TIANLIAN 2-03           
1 53100U 22078A   26160.34393409  .00000089  00000+0  00000+0 0  9993
2 53100   0.6523  76.8788 0001578 320.3026 354.9439  1.00272082 14462
SBIRS GEO-6 (USA 336)   
1 53355U 22092A   26160.79710439 -.00000277  00000+0  00000+0 0  9996
2 53355   3.2711 317.3561 0001909 118.9134 247.8702  1.00271209 14163
EUTELSAT KONNECT VHTS   
1 53765U 22110A   26160.62755586  .00000034  00000+0  00000+0 0  9996
2 53765   0.0647 103.4177 0002603 320.1706  63.0435  1.00269352  6766
